start=new Date('2023-06-19T00:00:00.000Z').valueOf();
sats=[{"CLASSIFICATION_TYPE":"U","DECAY_DATE":null,"REV_AT_EPOCH":"16624","PERIOD":"95.588","BSTAR":"0.00123440000000","TLE_LINE1":"1 45740U 20038L   23169.85424881  .00018185  00000-0  12344-2 0  9993","SITE":"AFETR","EPOCH":"2023-06-18T20:30:07.097184","GP_ID":"234243208","NORAD_CAT_ID":"45740","INCLINATION":"53.0539","TLE_LINE2":"2 45740  53.0539  22.6089 0000927  90.9916 269.1179 15.06465592166243","ARG_OF_PERICENTER":"90.9916","CENTER_NAME":"EARTH","REF_FRAME":"TEME","COUNTRY_CODE":"US","OBJECT_TYPE":"PAYLOAD","RA_OF_ASC_NODE":"22.6089","MEAN_ANOMALY":"269.1179","OBJECT_ID":"2020-038L","EPHEMERIS_TYPE":"0","FILE":"3936745","RCS_SIZE":"LARGE","MEAN_MOTION":"15.06465592","MEAN_MOTION_DOT":"0.00018185","LAUNCH_DATE":"2020-06-13","PERIAPSIS":"546.371","ECCENTRICITY":"0.00009270","SEMIMAJOR_AXIS":"6925.148","MEAN_ELEMENT_THEORY":"SGP4","TIME_SYSTEM":"UTC","APOAPSIS":"547.654","MEAN_MOTION_DDOT":"0.0000000000000","ELEMENT_SET_NO":"999","OBJECT_NAME":"STARLINK-1479"},{"MEAN_MOTION_DOT":"0.00002095","MEAN_MOTION":"15.06395222","FILE":"3936745","RCS_SIZE":"LARGE","OBJECT_ID":"2020-038M","EPHEMERIS_TYPE":"0","COUNTRY_CODE":"US","OBJECT_TYPE":"PAYLOAD","RA_OF_ASC_NODE":"22.4478","MEAN_ANOMALY":"271.1070","CENTER_NAME":"EARTH","REF_FRAME":"TEME","TLE_LINE2":"2 45741  53.0540  22.4478 0001121  89.0047 271.1070 15.06395222166264","ARG_OF_PERICENTER":"89.0047","INCLINATION":"53.0540","GP_ID":"234242465","EPOCH":"2023-06-18T21:23:14.703360","NORAD_CAT_ID":"45741","SITE":"AFETR","BSTAR":"0.00015950000000","TLE_LINE1":"1 45741U 20038M   23169.89114240  .00002095  00000-0  15950-3 0  9993","PERIOD":"95.592","REV_AT_EPOCH":"16626","CLASSIFICATION_TYPE":"U","DECAY_DATE":null,"OBJECT_NAME":"STARLINK-1480","ELEMENT_SET_NO":"999","MEAN_MOTION_DDOT":"0.0000000000000","TIME_SYSTEM":"UTC","APOAPSIS":"548.005","MEAN_ELEMENT_THEORY":"SGP4","SEMIMAJOR_AXIS":"6925.363","PERIAPSIS":"546.452","LAUNCH_DATE":"2020-06-13","ECCENTRICITY":"0.00011210"},{"REV_AT_EPOCH":"16624","CLASSIFICATION_TYPE":"U","DECAY_DATE":null,"TLE_LINE1":"1 45742U 20038N   23169.88376709  .00000760  00000-0  69913-4 0  9999","BSTAR":"0.00006991300000","PERIOD":"95.592","SITE":"AFETR","NORAD_CAT_ID":"45742","GP_ID":"234242216","EPOCH":"2023-06-18T21:12:37.476576","TLE_LINE2":"2 45742  53.0550  22.4782 0001070  85.2477 274.8635 15.06394965166240","ARG_OF_PERICENTER":"85.2477","INCLINATION":"53.0550","MEAN_ANOMALY":"274.8635","OBJECT_TYPE":"PAYLOAD","RA_OF_ASC_NODE":"22.4782","COUNTRY_CODE":"US","REF_FRAME":"TEME","CENTER_NAME":"EARTH","RCS_SIZE":"LARGE","FILE":"3936745","OBJECT_ID":"2020-038N","EPHEMERIS_TYPE":"0","MEAN_MOTION_DOT":"0.00000760","MEAN_MOTION":"15.06394965","ECCENTRICITY":"0.00010700","LAUNCH_DATE":"2020-06-13","PERIAPSIS":"546.488","MEAN_ELEMENT_THEORY":"SGP4","SEMIMAJOR_AXIS":"6925.364","APOAPSIS":"547.970","TIME_SYSTEM":"UTC","OBJECT_NAME":"STARLINK-1481","ELEMENT_SET_NO":"999","MEAN_MOTION_DDOT":"0.0000000000000"},{"GP_ID":"234242965","EPOCH":"2023-06-18T16:51:10.740096","NORAD_CAT_ID":"45743","SITE":"AFETR","PERIOD":"95.592","BSTAR":"0.00022644000000","TLE_LINE1":"1 45743U 20038P   23169.70220764  .00003093  00000-0  22644-3 0  9991","DECAY_DATE":null,"CLASSIFICATION_TYPE":"U","REV_AT_EPOCH":"16622","MEAN_MOTION":"15.06397520","MEAN_MOTION_DOT":"0.00003093","EPHEMERIS_TYPE":"0","OBJECT_ID":"2020-038P","FILE":"3936745","RCS_SIZE":"LARGE","CENTER_NAME":"EARTH","REF_FRAME":"TEME","COUNTRY_CODE":"US","OBJECT_TYPE":"PAYLOAD","RA_OF_ASC_NODE":"23.2159","MEAN_ANOMALY":"285.4356","INCLINATION":"53.0548","TLE_LINE2":"2 45743  53.0548  23.2159 0001417  74.6790 285.4356 15.06397520166226","ARG_OF_PERICENTER":"74.6790","SEMIMAJOR_AXIS":"6925.356","MEAN_ELEMENT_THEORY":"SGP4","PERIAPSIS":"546.240","LAUNCH_DATE":"2020-06-13","ECCENTRICITY":"0.00014170","ELEMENT_SET_NO":"999","MEAN_MOTION_DDOT":"0.0000000000000","OBJECT_NAME":"STARLINK-1483","TIME_SYSTEM":"UTC","APOAPSIS":"548.202"},{"ECCENTRICITY":"0.00012820","LAUNCH_DATE":"2020-06-13","PERIAPSIS":"546.328","MEAN_ELEMENT_THEORY":"SGP4","SEMIMAJOR_AXIS":"6925.351","APOAPSIS":"548.104","TIME_SYSTEM":"UTC","OBJECT_NAME":"STARLINK-1500","ELEMENT_SET_NO":"999","MEAN_MOTION_DDOT":"0.0000000000000","REV_AT_EPOCH":"16625","CLASSIFICATION_TYPE":"U","DECAY_DATE":null,"TLE_LINE1":"1 45744U 20038Q   23169.87270942  .00001128  00000-0  94591-4 0  9991","BSTAR":"0.00009459100000","PERIOD":"95.592","SITE":"AFETR","NORAD_CAT_ID":"45744","EPOCH":"2023-06-18T20:56:42.093888","GP_ID":"234243708","TLE_LINE2":"2 45744  53.0547  22.5247 0001282  89.7749 270.3386 15.06399288166259","ARG_OF_PERICENTER":"89.7749","INCLINATION":"53.0547","RA_OF_ASC_NODE":"22.5247","OBJECT_TYPE":"PAYLOAD","MEAN_ANOMALY":"270.3386","COUNTRY_CODE":"US","REF_FRAME":"TEME","CENTER_NAME":"EARTH","RCS_SIZE":"LARGE","FILE":"3936745","OBJECT_ID":"2020-038Q","EPHEMERIS_TYPE":"0","MEAN_MOTION_DOT":"0.00001128","MEAN_MOTION":"15.06399288"},{"LAUNCH_DATE":"2020-06-13","PERIAPSIS":"546.510","ECCENTRICITY":"0.00010390","SEMIMAJOR_AXIS":"6925.364","MEAN_ELEMENT_THEORY":"SGP4","TIME_SYSTEM":"UTC","APOAPSIS":"547.949","ELEMENT_SET_NO":"999","MEAN_MOTION_DDOT":"0.0000000000000","OBJECT_NAME":"STARLINK-1503","DECAY_DATE":null,"CLASSIFICATION_TYPE":"U","REV_AT_EPOCH":"16715","PERIOD":"95.592","BSTAR":"0.00011286000000","TLE_LINE1":"1 45745U 20038R   23169.72896019  .00001400  00000-0  11286-3 0  9997","SITE":"AFETR","GP_ID":"234218038","EPOCH":"2023-06-18T17:29:42.160416","NORAD_CAT_ID":"45745","INCLINATION":"53.0543","TLE_LINE2":"2 45745  53.0543  23.1686 0001039 104.6930 255.4175 15.06394933167151","ARG_OF_PERICENTER":"104.6930","CENTER_NAME":"EARTH","REF_FRAME":"TEME","COUNTRY_CODE":"US","OBJECT_TYPE":"PAYLOAD","RA_OF_ASC_NODE":"23.1686","MEAN_ANOMALY":"255.4175","EPHEMERIS_TYPE":"0","OBJECT_ID":"2020-038R","FILE":"3936527","RCS_SIZE":"LARGE","MEAN_MOTION":"15.06394933","MEAN_MOTION_DOT":"0.00001400"},{"EPHEMERIS_TYPE":"0","OBJECT_ID":"2020-038S","RCS_SIZE":"LARGE","FILE":"3936745","MEAN_MOTION":"15.06379640","MEAN_MOTION_DOT":"-0.00004023","INCLINATION":"53.0550","ARG_OF_PERICENTER":"20.8563","TLE_LINE2":"2 45746  53.0550  22.5103 0000399  20.8563 339.2442 15.06379640166241","REF_FRAME":"TEME","CENTER_NAME":"EARTH","OBJECT_TYPE":"PAYLOAD","RA_OF_ASC_NODE":"22.5103","MEAN_ANOMALY":"339.2442","COUNTRY_CODE":"US","SITE":"AFETR","NORAD_CAT_ID":"45746","GP_ID":"234242716","EPOCH":"2023-06-18T21:01:59.975040","DECAY_DATE":null,"CLASSIFICATION_TYPE":"U","REV_AT_EPOCH":"16624","PERIOD":"95.593","TLE_LINE1":"1 45746U 20038S   23169.87638860 -.00004023  00000-0 -25152-3 0  9995","BSTAR":"-0.00025152000000","MEAN_MOTION_DDOT":"0.0000000000000","ELEMENT_SET_NO":"999","OBJECT_NAME":"STARLINK-1504","APOAPSIS":"547.552","TIME_SYSTEM":"UTC","SEMIMAJOR_AXIS":"6925.411","MEAN_ELEMENT_THEORY":"SGP4","ECCENTRICITY":"0.00003990","LAUNCH_DATE":"2020-06-13","PERIAPSIS":"547.000"},{"MEAN_MOTION_DOT":"0.00012389","MEAN_MOTION":"15.06387049","FILE":"3936745","RCS_SIZE":"LARGE","OBJECT_ID":"2020-038T","EPHEMERIS_TYPE":"0","COUNTRY_CODE":"US","OBJECT_TYPE":"PAYLOAD","MEAN_ANOMALY":"354.5109","RA_OF_ASC_NODE":"22.4935","CENTER_NAME":"EARTH","REF_FRAME":"TEME","TLE_LINE2":"2 45747  53.0547  22.4935 0000308   5.5883 354.5109 15.06387049166258","ARG_OF_PERICENTER":"5.5883","INCLINATION":"53.0547","EPOCH":"2023-06-18T21:07:19.898688","GP_ID":"234243465","NORAD_CAT_ID":"45747","SITE":"AFETR","BSTAR":"0.00084939000000","TLE_LINE1":"1 45747U 20038T   23169.88009142  .00012389  00000-0  84939-3 0  9992","PERIOD":"95.593","REV_AT_EPOCH":"16625","DECAY_DATE":null,"CLASSIFICATION_TYPE":"U","OBJECT_NAME":"STARLINK-1506","ELEMENT_SET_NO":"999","MEAN_MOTION_DDOT":"0.0000000000000","TIME_SYSTEM":"UTC","APOAPSIS":"547.467","MEAN_ELEMENT_THEORY":"SGP4","SEMIMAJOR_AXIS":"6925.388","LAUNCH_DATE":"2020-06-13","PERIAPSIS":"547.040","ECCENTRICITY":"0.00003080"},{"TLE_LINE1":"1 45748U 20038U   23169.86808424  .00006231  00000-0  43676-3 0  9993","BSTAR":"0.00043676000000","PERIOD":"95.592","REV_AT_EPOCH":"16624","DECAY_DATE":null,"CLASSIFICATION_TYPE":"U","NORAD_CAT_ID":"45748","GP_ID":"234243209","EPOCH":"2023-06-18T20:50:02.478336","SITE":"AFETR","OBJECT_TYPE":"PAYLOAD","MEAN_ANOMALY":"267.2293","RA_OF_ASC_NODE":"22.5439","COUNTRY_CODE":"US","REF_FRAME":"TEME","CENTER_NAME":"EARTH","ARG_OF_PERICENTER":"92.8808","TLE_LINE2":"2 45748  53.0550  22.5439 0000982  92.8808 267.2293 15.06403466166242","INCLINATION":"53.0550","MEAN_MOTION_DOT":"0.00006231","MEAN_MOTION":"15.06403466","RCS_SIZE":"LARGE","FILE":"3936745","OBJECT_ID":"2020-038U","EPHEMERIS_TYPE":"0","ECCENTRICITY":"0.00009820","PERIAPSIS":"546.523","LAUNCH_DATE":"2020-06-13","MEAN_ELEMENT_THEORY":"SGP4","SEMIMAJOR_AXIS":"6925.338","APOAPSIS":"547.883","TIME_SYSTEM":"UTC","OBJECT_NAME":"STARLINK-1507","ELEMENT_SET_NO":"999","MEAN_MOTION_DDOT":"0.0000000000000"},{"ARG_OF_PERICENTER":"95.0953","TLE_LINE2":"2 45750  53.0540   2.7199 0001835  95.0953 265.0245 15.06398373167649","INCLINATION":"53.0540","OBJECT_TYPE":"PAYLOAD","MEAN_ANOMALY":"265.0245","RA_OF_ASC_NODE":"2.7199","COUNTRY_CODE":"US","REF_FRAME":"TEME","CENTER_NAME":"EARTH","RCS_SIZE":"LARGE","FILE":"3936519","OBJECT_ID":"2020-038W","EPHEMERIS_TYPE":"0","MEAN_MOTION_DOT":"0.00000541","MEAN_MOTION":"15.06398373","REV_AT_EPOCH":"16764","CLASSIFICATION_TYPE":"U","DECAY_DATE":null,"TLE_LINE1":"1 45750U 20038W   23169.83031812  .00000541  00000-0  55226-4 0  9995","BSTAR":"0.00005522600000","PERIOD":"95.592","SITE":"AFETR","NORAD_CAT_ID":"45750","EPOCH":"2023-06-18T19:55:39.485568","GP_ID":"234217905","APOAPSIS":"548.489","TIME_SYSTEM":"UTC","OBJECT_NAME":"STARLINK-1391","ELEMENT_SET_NO":"999","MEAN_MOTION_DDOT":"0.0000000000000","ECCENTRICITY":"0.00018350","LAUNCH_DATE":"2020-06-13","PERIAPSIS":"545.948","MEAN_ELEMENT_THEORY":"SGP4","SEMIMAJOR_AXIS":"6925.354"}];
